SUOMI NPP               
1 37849U 11061A   22106.09318626  .00000057  00000-0  47985-4 0  9995
2 37849  98.7284  45.5229 0001225  96.5711 274.0837 14.19556589542349